{
  "norad_id": 59865,
  "name": "STARLINK-31938",
  "history": [
    {
      "epoch": "2026-03-28T22:34:46.631136",
      "apogee_km": 483.294822710518,
      "perigee_km": 482.8021895911752,
      "latitude_deg": 34.45080534259206,
      "longitude_deg": -103.18152096006088,
      "semi_major_axis_km": 6861.185506150846,
      "eccentricity": 3.59e-05,
      "inclination_deg": 43.0016,
      "raan_deg": 168.9864,
      "arg_perigee_deg": 255.716,
      "mean_anomaly_deg": 104.3652,
      "mean_motion_rev_day": 15.27580197
    }
  ]
}