{"fetched_at":"2026-03-29T16:36:15Z","count":15609,"tles":[{"name":"STARLINK-31938","line1":"1 59865U 24098H   26087.94081749  .00001513  00000+0  64473-4 0  9998","line2":"2 59865  43.0016 168.9864 0000359 255.7160 104.3652 15.27580197104791","category":"Starlink"}]}